KUIPER-00112            
1 65150U 25171U   25273.96051698  .00064718  00000+0  17811-2 0  9991
2 65150  51.8753 161.4945 0004519 339.1310  20.9491 15.36553557  8993
KUIPER-00114            
1 65151U 25171V   25274.16667823 -.01000132  00000+0 -68877-1 0  9998
2 65151  51.8866 163.2199 0005527 309.4359 144.5903 15.08069255  2499
KUIPER-00115            
1 65152U 25171W   25274.16667823 -.00398901  00000+0 -15389-1 0  9992
2 65152  51.8781 160.6380 0006832 320.9311  34.5072 15.27499580  5201
KUIPER-00116            
1 65153U 25171X   25274.16667823 -.00464435  00000+0 -26303-1 0  9997
2 65153  51.8966 162.1596 0005417 282.1047 355.7904 15.14788772  5770
KUIPER-00118            
1 65154U 25171Y   25274.16667823 -.00685404  00000+0 -45877-1 0  9996
2 65154  51.9010 163.0664 0003990 294.2551 321.5137 15.08981271  5384
KUIPER-00119            
1 65155U 25171Z   25274.16667823 -.00464237  00000+0 -13627-1 0  9994
2 65155  51.8753 160.2207 0005084 303.1986 251.0426 15.36475653  4894
